{
  "type": "FeatureCollection",
  "features": [
    {
      "type": "Feature",
      "properties": {
        "norad_id": 39777,
        "name": "IRIDIUM 33 DEB",
        "group": "iridium-33-debris",
        "lat": -38.169772568927755,
        "lon": 164.62965729893958,
        "alt_km": 752.7808950221042,
        "timestamp": "2025-12-27T15:27:11.580051+00:00",
        "meta_object_name": "IRIDIUM 33 DEB",
        "meta_object_id": "1997-051AAJ",
        "meta_epoch": "2025-12-26T21:29:47.806944",
        "meta_mean_motion": 14.56768068,
        "meta_eccentricity": 0.006056,
        "meta_inclination": 85.9637,
        "meta_ra_of_asc_node": 168.1747,
        "meta_arg_of_pericenter": 139.2248,
        "meta_mean_anomaly": 221.3516,
        "meta_ephemeris_type": 0,
        "meta_classification_type": "U",
        "meta_norad_cat_id": 39777,
        "meta_element_set_no": 999,
        "meta_rev_at_epoch": 60391,
        "meta_bstar": 0.0035268,
        "meta_mean_motion_dot": 0.00016216,
        "meta_mean_motion_ddot": 0,
        "tle_line1": "1 39777U 97051AAJ 25360.89569221  .00016216  00000+0  35268-2 0  9994",
        "tle_line2": "2 39777  85.9637 168.1747 0060560 139.2248 221.3516 14.56768068603913"
      },
      "geometry": {
        "type": "Point",
        "coordinates": [
          164.62965729893958,
          -38.169772568927755
        ]
      }
    },
    {
      "type": "Feature",
      "properties": {
        "norad_id": 39778,
        "name": "IRIDIUM 33 DEB",
        "group": "iridium-33-debris",
        "lat": 34.01408746475645,
        "lon": 39.20527294633097,
        "alt_km": 705.841097088437,
        "timestamp": "2025-12-27T15:27:11.580063+00:00",
        "meta_object_name": "IRIDIUM 33 DEB",
        "meta_object_id": "1997-051AAK",
        "meta_epoch": "2025-12-25T20:21:50.179680",
        "meta_mean_motion": 14.54348903,
        "meta_eccentricity": 0.00065112,
        "meta_inclination": 86.3769,
        "meta_ra_of_asc_node": 37.534,
        "meta_arg_of_pericenter": 359.9142,
        "meta_mean_anomaly": 0.2063,
        "meta_ephemeris_type": 0,
        "meta_classification_type": "U",
        "meta_norad_cat_id": 39778,
        "meta_element_set_no": 999,
        "meta_rev_at_epoch": 60883,
        "meta_bstar": 0.00084026877,
        "meta_mean_motion_dot": 3.588e-05,
        "meta_mean_motion_ddot": 0,
        "tle_line1": "1 39778U 97051AAK 25359.84849745  .00003588  00000+0  84027-3 0  9996",
        "tle_line2": "2 39778  86.3769  37.5340 0006511 359.9142   0.2063 14.54348903608830"
      },
      "geometry": {
        "type": "Point",
        "coordinates": [
          39.20527294633097,
          34.01408746475645
        ]
      }
    },
    {
      "type": "Feature",
      "properties": {
        "norad_id": 39781,
        "name": "IRIDIUM 33 DEB",
        "group": "iridium-33-debris",
        "lat": 26.04322700586662,
        "lon": 70.05820509421459,
        "alt_km": 779.7729189827505,
        "timestamp": "2025-12-27T15:27:11.580073+00:00",
        "meta_object_name": "IRIDIUM 33 DEB",
        "meta_object_id": "1997-051AAN",
        "meta_epoch": "2025-12-26T00:09:41.273280",
        "meta_mean_motion": 14.20964815,
        "meta_eccentricity": 0.01723668,
        "meta_inclination": 86.3698,
        "meta_ra_of_asc_node": 252.511,
        "meta_arg_of_pericenter": 230.4954,
        "meta_mean_anomaly": 195.4493,
        "meta_ephemeris_type": 0,
        "meta_classification_type": "U",
        "meta_norad_cat_id": 39781,
        "meta_element_set_no": 999,
        "meta_rev_at_epoch": 8295,
        "meta_bstar": 0.0048537069,
        "meta_mean_motion_dot": 0.00012243,
        "meta_mean_motion_ddot": 0,
        "tle_line1": "1 39781U 97051AAN 25360.00672770  .00012243  00000+0  48537-2 0  9995",
        "tle_line2": "2 39781  86.3698 252.5110 0172366 230.4954 195.4493 14.20964815 82957"
      },
      "geometry": {
        "type": "Point",
        "coordinates": [
          70.05820509421459,
          26.04322700586662
        ]
      }
    },
    {
      "type": "Feature",
      "properties": {
        "norad_id": 40996,
        "name": "IRIDIUM 33 DEB",
        "group": "iridium-33-debris",
        "lat": 70.1284904309535,
        "lon": 4.60832973989206,
        "alt_km": 564.2146964291542,
        "timestamp": "2025-12-27T15:27:11.580083+00:00",
        "meta_object_name": "IRIDIUM 33 DEB",
        "meta_object_id": "1997-051ABJ",
        "meta_epoch": "2025-12-25T10:52:55.970112",
        "meta_mean_motion": 14.97048042,
        "meta_eccentricity": 0.0010436,
        "meta_inclination": 86.3519,
        "meta_ra_of_asc_node": 355.4655,
        "meta_arg_of_pericenter": 27.9702,
        "meta_mean_anomaly": 124.5027,
        "meta_ephemeris_type": 0,
        "meta_classification_type": "U",
        "meta_norad_cat_id": 40996,
        "meta_element_set_no": 999,
        "meta_rev_at_epoch": 62678,
        "meta_bstar": 0.0031302,
        "meta_mean_motion_dot": 0.00036257,
        "meta_mean_motion_ddot": 0,
        "tle_line1": "1 40996U 97051ABJ 25359.45342558  .00036257  00000+0  31302-2 0  9993",
        "tle_line2": "2 40996  86.3519 355.4655 0010436  27.9702 124.5027 14.97048042626785"
      },
      "geometry": {
        "type": "Point",
        "coordinates": [
          4.60832973989206,
          70.1284904309535
        ]
      }
    },
    {
      "type": "Feature",
      "properties": {
        "norad_id": 40998,
        "name": "IRIDIUM 33 DEB",
        "group": "iridium-33-debris",
        "lat": -78.1627877678702,
        "lon": 29.713389114643117,
        "alt_km": 752.2001453583089,
        "timestamp": "2025-12-27T15:27:11.580093+00:00",
        "meta_object_name": "IRIDIUM 33 DEB",
        "meta_object_id": "1997-051ABL",
        "meta_epoch": "2025-12-26T10:09:43.353216",
        "meta_mean_motion": 14.4513968,
        "meta_eccentricity": 0.0008602,
        "meta_inclination": 86.3812,
        "meta_ra_of_asc_node": 47.8096,
        "meta_arg_of_pericenter": 47.0142,
        "meta_mean_anomaly": 8.9419,
        "meta_ephemeris_type": 0,
        "meta_classification_type": "U",
        "meta_norad_cat_id": 40998,
        "meta_element_set_no": 999,
        "meta_rev_at_epoch": 6879,
        "meta_bstar": 0.00044303,
        "meta_mean_motion_dot": 1.57e-05,
        "meta_mean_motion_ddot": 0,
        "tle_line1": "1 40998U 97051ABL 25360.42341844  .00001570  00000+0  44303-3 0  9997",
        "tle_line2": "2 40998  86.3812  47.8096 0008602  47.0142   8.9419 14.45139680 68790"
      },
      "geometry": {
        "type": "Point",
        "coordinates": [
          29.713389114643117,
          -78.1627877678702
        ]
      }
    },
    {
      "type": "Feature",
      "properties": {
        "norad_id": 46435,
        "name": "IRIDIUM 33 DEB",
        "group": "iridium-33-debris",
        "lat": -23.937678765456987,
        "lon": 9.187909507179306,
        "alt_km": 651.5420589965297,
        "timestamp": "2025-12-27T15:27:11.580104+00:00",
        "meta_object_name": "IRIDIUM 33 DEB",
        "meta_object_id": "1997-051ABN",
        "meta_epoch": "2025-12-27T06:57:44.436096",
        "meta_mean_motion": 14.33202711,
        "meta_eccentricity": 0.0205337,
        "meta_inclination": 86.2844,
        "meta_ra_of_asc_node": 187.6872,
        "meta_arg_of_pericenter": 228.8147,
        "meta_mean_anomaly": 311.7599,
        "meta_ephemeris_type": 0,
        "meta_classification_type": "U",
        "meta_norad_cat_id": 46435,
        "meta_element_set_no": 999,
        "meta_rev_at_epoch": 8124,
        "meta_bstar": 0.011625292,
        "meta_mean_motion_dot": 0.00040605,
        "meta_mean_motion_ddot": 0,
        "tle_line1": "1 46435U 97051ABN 25361.29009764  .00040605  00000+0  11625-1 0  9998",
        "tle_line2": "2 46435  86.2844 187.6872 0205337 228.8147 311.7599 14.33202711 81241"
      },
      "geometry": {
        "type": "Point",
        "coordinates": [
          9.187909507179306,
          -23.937678765456987
        ]
      }
    },
    {
      "type": "Feature",
      "properties": {
        "norad_id": 46734,
        "name": "IRIDIUM 33 DEB",
        "group": "iridium-33-debris",
        "lat": 10.64244958540578,
        "lon": 175.61598693016768,
        "alt_km": 764.8870474647174,
        "timestamp": "2025-12-27T15:27:11.580115+00:00",
        "meta_object_name": "IRIDIUM 33 DEB",
        "meta_object_id": "1997-051ABR",
        "meta_epoch": "2025-12-26T17:50:24.765216",
        "meta_mean_motion": 14.41977609,
        "meta_eccentricity": 0.00372857,
        "meta_inclination": 86.2643,
        "meta_ra_of_asc_node": 356.7146,
        "meta_arg_of_pericenter": 287.6839,
        "meta_mean_anomaly": 250.0617,
        "meta_ephemeris_type": 0,
        "meta_classification_type": "U",
        "meta_norad_cat_id": 46734,
        "meta_element_set_no": 999,
        "meta_rev_at_epoch": 63212,
        "meta_bstar": 0.0011195467,
        "meta_mean_motion_dot": 3.719e-05,
        "meta_mean_motion_ddot": 0,
        "tle_line1": "1 46734U 97051ABR 25360.74334219  .00003719  00000+0  11195-2 0  9993",
        "tle_line2": "2 46734  86.2643 356.7146 0037285 287.6839 250.0617 14.41977609632128"
      },
      "geometry": {
        "type": "Point",
        "coordinates": [
          175.61598693016768,
          10.64244958540578
        ]
      }
    }
  ]
}